[{"OBJECT_NAME":"STARLINK-30889","OBJECT_ID":"2023-177T","EPOCH":"2026-03-09T22:00:01.999584","MEAN_MOTION":15.26790711,"ECCENTRICITY":0.00022245,"INCLINATION":43.0002,"RA_OF_ASC_NODE":349.4176,"ARG_OF_PERICENTER":264.2375,"MEAN_ANOMALY":358.8181,"EPHEMERIS_TYPE":0,"CLASSIFICATION_TYPE":"U","NORAD_CAT_ID":58368,"ELEMENT_SET_NO":999,"REV_AT_EPOCH":557,"BSTAR":0.0014110281,"MEAN_MOTION_DOT":0.00037843,"MEAN_MOTION_DDOT":0},{"OBJECT_NAME":"OBJECT D","OBJECT_ID":"2025-197D","EPOCH":"2026-03-09T23:30:56.303712","MEAN_MOTION":15.25287442,"ECCENTRICITY":0.00144425,"INCLINATION":97.4091,"RA_OF_ASC_NODE":257.3677,"ARG_OF_PERICENTER":3.398,"MEAN_ANOMALY":356.7353,"EPHEMERIS_TYPE":0,"CLASSIFICATION_TYPE":"U","NORAD_CAT_ID":65491,"ELEMENT_SET_NO":999,"REV_AT_EPOCH":2822,"BSTAR":0.00037200129,"MEAN_MOTION_DOT":9.321e-5,"MEAN_MOTION_DDOT":0}]
